CS1                     
1 49261U 21088B   26068.75173904  .00015722  00000+0  51176-3 0  9998
2 49261  97.3882 132.1684 0014129  78.0335 282.2490 15.31848439245182
STARLINK-35742          
1 66276U 25247M   26068.62417634  .00047156  00000+0  15947-2 0  9992
2 66276  53.1577 191.7465 0001058  61.1170 298.9937 15.30189377 21071
